{"type": "FeatureCollection", "features": [ {"type": "Feature", "properties": {"norad_id": 66633, "name": "STARLINK-35948", "group": "last-30-days", "lat": 43.41877690480717, "lon": -88.78792774728618, "alt_km": 319.82215270883717, "timestamp": "2025-12-04T19:33:58.449948+00:00", "meta": {"OBJECT_NAME": "STARLINK-35948", "OBJECT_ID": "2025-271S", "EPOCH": "2025-12-04T07:11:12.702912", "MEAN_MOTION": 15.81911377, "ECCENTRICITY": 0.00017387, "INCLINATION": 53.156, "RA_OF_ASC_NODE": 228.6031, "ARG_OF_PERICENTER": 302.1786, "MEAN_ANOMALY": 57.9069, "EPHEMERIS_TYPE": 0, "CLASSIFICATION_TYPE": "U", "NORAD_CAT_ID": 66633, "ELEMENT_SET_NO": 999, "REV_AT_EPOCH": 288, "BSTAR": -9.8824794e-05, "MEAN_MOTION_DOT": -0.0002113, "MEAN_MOTION_DDOT": 0}, "tle": {"line1": "1 66633U 25271S   25338.29945258 -.00021130  00000+0 -98825-4 0  9990", "line2": "2 66633  53.1560 228.6031 0001738 302.1786  57.9069 15.81911377  2881"}}, "geometry": {"type": "Point", "coordinates": [-88.78792774728618, 43.41877690480717]}}, {"type": "Feature", "properties": {"norad_id": 66634, "name": "STARLINK-35967", "group": "last-30-days", "lat": 44.85960451202375, "lon": -85.73207125771211, "alt_km": 318.79261281445815, "timestamp": "2025-12-04T19:33:58.449957+00:00", "meta": {"OBJECT_NAME": "STARLINK-35967", "OBJECT_ID": "2025-271T", "EPOCH": "2025-12-04T07:10:41.911680", "MEAN_MOTION": 15.82059785, "ECCENTRICITY": 0.00027006, "INCLINATION": 53.156, "RA_OF_ASC_NODE": 228.6005, "ARG_OF_PERICENTER": 294.0222, "MEAN_ANOMALY": 66.0519, "EPHEMERIS_TYPE": 0, "CLASSIFICATION_TYPE": "U", "NORAD_CAT_ID": 66634, "ELEMENT_SET_NO": 999, "REV_AT_EPOCH": 284, "BSTAR": 0.0014975784, "MEAN_MOTION_DOT": 0.00323533, "MEAN_MOTION_DDOT": 0}, "tle": {"line1": "1 66634U 25271T   25338.29909620  .00323533  00000+0  14976-2 0  9997", "line2": "2 66634  53.1560 228.6005 0002700 294.0222  66.0519 15.82059785  2841"}}, "geometry": {"type": "Point", "coordinates": [-85.73207125771211, 44.85960451202375]}}, {"type": "Feature", "properties": {"norad_id": 66635, "name": "STARLINK-35955", "group": "last-30-days", "lat": 46.95220224811014, "lon": -80.60393870500383, "alt_km": 310.5479129602363, "timestamp": "2025-12-04T19:33:58.449966+00:00", "meta": {"OBJECT_NAME": "STARLINK-35955", "OBJECT_ID": "2025-271U", "EPOCH": "2025-12-04T04:08:02.562432", "MEAN_MOTION": 15.81682042, "ECCENTRICITY": 0.00049906, "INCLINATION": 53.1555, "RA_OF_ASC_NODE": 229.232, "ARG_OF_PERICENTER": 47.5506, "MEAN_ANOMALY": 312.5938, "EPHEMERIS_TYPE": 0, "CLASSIFICATION_TYPE": "U", "NORAD_CAT_ID": 66635, "ELEMENT_SET_NO": 999, "REV_AT_EPOCH": 286, "BSTAR": 0.0075810547, "MEAN_MOTION_DOT": 0.0176083, "MEAN_MOTION_DDOT": 0}, "tle": {"line1": "1 66635U 25271U   25338.17225188  .01760830  00000+0  75811-2 0  9996", "line2": "2 66635  53.1555 229.2320 0004990  47.5506 312.5938 15.81682042  2865"}}, "geometry": {"type": "Point", "coordinates": [-80.60393870500383, 46.95220224811014]}}, {"type": "Feature", "properties": {"norad_id": 66636, "name": "STARLINK-35968", "group": "last-30-days", "lat": 46.576469654585274, "lon": -81.59966636907203, "alt_km": 322.03110692048995, "timestamp": "2025-12-04T19:33:58.449975+00:00", "meta": {"OBJECT_NAME": "STARLINK-35968", "OBJECT_ID": "2025-271V", "EPOCH": "2025-12-04T07:09:31.156128", "MEAN_MOTION": 15.81743317, "ECCENTRICITY": 0.00024153, "INCLINATION": 53.1559, "RA_OF_ASC_NODE": 228.5949, "ARG_OF_PERICENTER": 229.9805, "MEAN_ANOMALY": 130.1006, "EPHEMERIS_TYPE": 0, "CLASSIFICATION_TYPE": "U", "NORAD_CAT_ID": 66636, "ELEMENT_SET_NO": 999, "REV_AT_EPOCH": 288, "BSTAR": -0.0020073107, "MEAN_MOTION_DOT": -0.00395108, "MEAN_MOTION_DDOT": 0}, "tle": {"line1": "1 66636U 25271V   25338.29827727 -.00395108  00000+0 -20073-2 0  9990", "line2": "2 66636  53.1559 228.5949 0002415 229.9805 130.1006 15.81743317  2882"}}, "geometry": {"type": "Point", "coordinates": [-81.59966636907203, 46.576469654585274]}}, {"type": "Feature", "properties": {"norad_id": 66637, "name": "STARLINK-35953", "group": "last-30-days", "lat": 47.42101212869526, "lon": -79.31131658066596, "alt_km": 321.2770914654029, "timestamp": "2025-12-04T19:33:58.449985+00:00", "meta": {"OBJECT_NAME": "STARLINK-35953", "OBJECT_ID": "2025-271W", "EPOCH": "2025-12-04T07:08:57.874848", "MEAN_MOTION": 15.81619452, "ECCENTRICITY": 2.41e-05, "INCLINATION": 53.1558, "RA_OF_ASC_NODE": 228.5923, "ARG_OF_PERICENTER": 357.6726, "MEAN_ANOMALY": 2.4296, "EPHEMERIS_TYPE": 0, "CLASSIFICATION_TYPE": "U", "NORAD_CAT_ID": 66637, "ELEMENT_SET_NO": 999, "REV_AT_EPOCH": 288, "BSTAR": -0.0031565219, "MEAN_MOTION_DOT": -0.00602563, "MEAN_MOTION_DDOT": 0}, "tle": {"line1": "1 66637U 25271W   25338.29789207 -.00602563  00000+0 -31565-2 0  9995", "line2": "2 66637  53.1558 228.5923 0000241 357.6726   2.4296 15.81619452  2884"}}, "geometry": {"type": "Point", "coordinates": [-79.31131658066596, 47.42101212869526]}}, {"type": "Feature", "properties": {"norad_id": 66638, "name": "STARLINK-35972", "group": "last-30-days", "lat": 47.44650762290252, "lon": -79.2382195394704, "alt_km": 325.4618907969898, "timestamp": "2025-12-04T19:33:58.449997+00:00", "meta": {"OBJECT_NAME": "STARLINK-35972", "OBJECT_ID": "2025-271X", "EPOCH": "2025-12-04T00:00:02.000160", "MEAN_MOTION": 15.82225759, "ECCENTRICITY": 8.193e-05, "INCLINATION": 53.156, "RA_OF_ASC_NODE": 230.0843, "ARG_OF_PERICENTER": 74.7905, "MEAN_ANOMALY": 30.343, "EPHEMERIS_TYPE": 0, "CLASSIFICATION_TYPE": "U", "NORAD_CAT_ID": 66638, "ELEMENT_SET_NO": 999, "REV_AT_EPOCH": 284, "BSTAR": -0.0090968916, "MEAN_MOTION_DOT": -0.01662822, "MEAN_MOTION_DDOT": 0}, "tle": {"line1": "1 66638U 25271X   25338.00002315 -.01662822  00000+0 -90969-2 0  9991", "line2": "2 66638  53.1560 230.0843 0000819  74.7905  30.3430 15.82225759  2844"}}, "geometry": {"type": "Point", "coordinates": [-79.2382195394704, 47.44650762290252]}}, {"type": "Feature", "properties": {"norad_id": 66639, "name": "STARLINK-35908", "group": "last-30-days", "lat": 52.364276462893066, "lon": -57.51257472700442, "alt_km": 310.1788775362893, "timestamp": "2025-12-04T19:33:58.450006+00:00", "meta": {"OBJECT_NAME": "STARLINK-35908", "OBJECT_ID": "2025-271Y", "EPOCH": "2025-12-04T02:34:25.508352", "MEAN_MOTION": 15.84226755, "ECCENTRICITY": 0.00097052, "INCLINATION": 53.1556, "RA_OF_ASC_NODE": 229.5367, "ARG_OF_PERICENTER": 335.6046, "MEAN_ANOMALY": 24.4518, "EPHEMERIS_TYPE": 0, "CLASSIFICATION_TYPE": "U", "NORAD_CAT_ID": 66639, "ELEMENT_SET_NO": 999, "REV_AT_EPOCH": 285, "BSTAR": 0.0030756132, "MEAN_MOTION_DOT": 0.00777445, "MEAN_MOTION_DDOT": 0}, "tle": {"line1": "1 66639U 25271Y   25338.10723968  .00777445  00000+0  30756-2 0  9990", "line2": "2 66639  53.1556 229.5367 0009705 335.6046  24.4518 15.84226755  2853"}}, "geometry": {"type": "Point", "coordinates": [-57.51257472700442, 52.364276462893066]}}, {"type": "Feature", "properties": {"norad_id": 66640, "name": "STARLINK-35921", "group": "last-30-days", "lat": 50.131583348583, "lon": -70.14556018392851, "alt_km": 317.5593077993708, "timestamp": "2025-12-04T19:33:58.450014+00:00", "meta": {"OBJECT_NAME": "STARLINK-35921", "OBJECT_ID": "2025-271Z", "EPOCH": "2025-12-04T07:07:23.950272", "MEAN_MOTION": 15.81318878, "ECCENTRICITY": 0.0004963, "INCLINATION": 53.1562, "RA_OF_ASC_NODE": 228.5854, "ARG_OF_PERICENTER": 9.2257, "MEAN_ANOMALY": 350.8856, "EPHEMERIS_TYPE": 0, "CLASSIFICATION_TYPE": "U", "NORAD_CAT_ID": 66640, "ELEMENT_SET_NO": 999, "REV_AT_EPOCH": 288, "BSTAR": 0.0015697768, "MEAN_MOTION_DOT": 0.00327985, "MEAN_MOTION_DDOT": 0}, "tle": {"line1": "1 66640U 25271Z   25338.29680498  .00327985  00000+0  15698-2 0  9990", "line2": "2 66640  53.1562 228.5854 0004963   9.2257 350.8856 15.81318878  2880"}}, "geometry": {"type": "Point", "coordinates": [-70.14556018392851, 50.131583348583]}}, {"type": "Feature", "properties": {"norad_id": 66641, "name": "STARLINK-35923", "group": "last-30-days", "lat": 52.782367394646606, "lon": -53.19093495922059, "alt_km": 321.29921095619557, "timestamp": "2025-12-04T19:33:58.450023+00:00", "meta": {"OBJECT_NAME": "STARLINK-35923", "OBJECT_ID": "2025-271AA", "EPOCH": "2025-12-04T04:02:26.143296", "MEAN_MOTION": 15.81718152, "ECCENTRICITY": 0.00011943, "INCLINATION": 53.1554, "RA_OF_ASC_NODE": 229.2043, "ARG_OF_PERICENTER": 158.0841, "MEAN_ANOMALY": 202.0234, "EPHEMERIS_TYPE": 0, "CLASSIFICATION_TYPE": "U", "NORAD_CAT_ID": 66641, "ELEMENT_SET_NO": 999, "REV_AT_EPOCH": 286, "BSTAR": -0.0043987252, "MEAN_MOTION_DOT": -0.00822461, "MEAN_MOTION_DDOT": 0}, "tle": {"line1": "1 66641U 25271AA  25338.16835814 -.00822461  00000+0 -43987-2 0  9994", "line2": "2 66641  53.1554 229.2043 0001194 158.0841 202.0234 15.81718152  2860"}}, "geometry": {"type": "Point", "coordinates": [-53.19093495922059, 52.782367394646606]}}, {"type": "Feature", "properties": {"norad_id": 66642, "name": "STARLINK-35926", "group": "last-30-days", "lat": 52.453269402060094, "lon": -56.72389379754667, "alt_km": 321.69716133260135, "timestamp": "2025-12-04T19:33:58.450032+00:00", "meta": {"OBJECT_NAME": "STARLINK-35926", "OBJECT_ID": "2025-271AB", "EPOCH": "2025-12-04T04:02:59.482464", "MEAN_MOTION": 15.8171776, "ECCENTRICITY": 7.72e-05, "INCLINATION": 53.1557, "RA_OF_ASC_NODE": 229.2075, "ARG_OF_PERICENTER": 174.0832, "MEAN_ANOMALY": 186.0201, "EPHEMERIS_TYPE": 0, "CLASSIFICATION_TYPE": "U", "NORAD_CAT_ID": 66642, "ELEMENT_SET_NO": 999, "REV_AT_EPOCH": 282, "BSTAR": -0.0043016171, "MEAN_MOTION_DOT": -0.0080574, "MEAN_MOTION_DDOT": 0}, "tle": {"line1": "1 66642U 25271AB  25338.16874401 -.00805740  00000+0 -43016-2 0  9994", "line2": "2 66642  53.1557 229.2075 0000772 174.0832 186.0201 15.81717760  2823"}}, "geometry": {"type": "Point", "coordinates": [-56.72389379754667, 52.453269402060094]}}]}